PERSEUS-M1              
1 40039U 14033AF  26161.07824676  .00001412  00000+0  13256-3 0  9990
2 40039  97.9645 105.0938 0010724 328.4585  31.5991 14.95611900649578
POLYITAN-1              
1 40042U 14033AJ  26161.00340652  .00018102  00000+0  56929-3 0  9992
2 40042  98.0952 186.5861 0008113 161.9908 198.1621 15.33005372652490
TIGRISAT                
1 40043U 14033AK  26161.17627726  .00002056  00000+0  24109-3 0  9997
2 40043  97.7822 311.3494 0050708  97.5926 263.1053 14.85135319644588
AEROCUBE 6A             
1 40045U 14033AM  26161.27739974  .00005583  00000+0  46997-3 0  9996
2 40045  97.7224 328.3001 0039318  41.0482 319.3687 14.98032072645587
AEROCUBE 6B             
1 40046U 14033AN  26160.35224349  .00005861  00000+0  47495-3 0  9993
2 40046  97.7232 327.1573 0038933  35.9586 324.4245 14.99486502645586
CANX-4                  
1 40055U 14034C   26160.92396092  .00000829  00000+0  11365-3 0  9998
2 40055  98.3132  35.9700 0013641  39.2768 320.9431 14.81251246643454
CANX-5                  
1 40056U 14034D   26161.19267955  .00000822  00000+0  11271-3 0  9993
2 40056  98.3134  36.2920 0013636  38.5954 321.6230 14.81268948634304
UKUBE-1                 
1 40074U 14037F   26160.76359552  .00008577  00000+0  48408-3 0  9990
2 40074  98.4238 163.2558 0002164 144.4016 215.7357 15.13433815647432
BRITE-PL2 (HEWELIUSZ)   
1 40119U 14049B   26160.80789034  .00001769  00000+0  16872-3 0  9996
2 40119  97.9090 272.7516 0015162 130.3835 229.8711 14.94571041640342
AEROCUBE 5C             
1 40965U 15058B   26161.06314466  .00002259  00000+0  20678-3 0  9992
2 40965  64.7677 284.7519 0130478  66.0614 295.4099 14.91420489364592
AEROCUBE 7              
1 40966U 15058C   26161.01293459  .00003171  00000+0  25995-3 0  9997
2 40966  64.7626 267.2861 0120192  64.5565 296.7929 14.95680433364882
FOX-1A (AO-85)          
1 40967U 15058D   26161.10842282  .00002400  00000+0  22166-3 0  9993
2 40967  64.7758 300.9815 0130036  59.3571 302.0285 14.90935600112511
SINOD-D 1               
1 40968U 15058E   26160.72432590  .00003290  00000+0  26884-3 0  9997
2 40968  64.7758 282.2824 0118620  56.0584 305.1740 14.95857939115546
SNAP-3 ALICE            
1 40970U 15058G   26161.18297835  .00120629  00000+0  15178-2 0  9991
2 40970  64.7495 128.1133 0030162  16.6557 343.5571 15.58486832115799
LMRST-SAT               
1 40971U 15058H   26160.99483350  .00002231  00000+0  20842-3 0  9992
2 40971  64.7764 297.6590 0131701  61.4271 300.0021 14.90557514112482
SNAP-3 EDDIE            
1 40972U 15058J   26161.05031136  .00120897  00000+0  14563-2 0  9993
2 40972  64.7416 119.3485 0030021  20.7248 339.5107 15.59635087117918
PROPCUBE 3              
1 40973U 15058K   26161.04805690  .00002829  00000+0  24070-3 0  9996
2 40973  64.7691 274.8403 0123721  62.7299 298.6352 14.94218236113737
BISONSAT                
1 40974U 15058L   26161.17311376  .00009463  00000+0  46240-3 0  9998
2 40974  64.7590 196.3188 0078485  50.1692 310.6304 15.16042716114554
SNAP-3 JIMI             
1 40975U 15058M   26160.60019345  .00004229  00000+0  29587-3 0  9997
2 40975  64.7650 243.7760 0105806  58.4680 302.6719 15.02233651113084
PROPCUBE 1 (FLORA)      
1 40976U 15058N   26161.14461904  .00002318  00000+0  22436-3 0  9993
2 40976  64.7753 317.0626 0130443  63.6769 297.7671 14.89189029115217
SINOD-D 3               
1 40977U 15058P   26160.87775683  .00003229  00000+0  27746-3 0  9996
2 40977  64.7732 298.6433 0118908  61.0397 300.2577 14.93969758113668
HORYU-4                 
1 41340U 16012D   26161.10844880  .00337518  00000+0  10043-2 0  9997
2 41340  30.9844 130.8123 0003461 226.4757 133.5616 15.90526809569681
RAVAN                   
1 41849U 16067B   26160.96212629  .00049899  00000+0  76982-3 0  9991
2 41849  97.9902  49.7028 0005469  50.9650 309.2088 15.53985227526575
CELTEE 1                
1 41850U 16067C   26160.89819241  .00005116  00000+0  24385-3 0  9992
2 41850  98.0682  26.9682 0000659 109.8261 250.3043 15.19610924524773
OPTICUBE 04             
1 41851U 16067D   26161.11956868  .00002088  00000+0  13391-3 0  9996
2 41851  98.0713  13.0348 0016588 137.7001 222.5509 15.09631218524108
AEROCUBE 8D             
1 41852U 16067E   26160.60660457  .00006876  00000+0  28467-3 0  9995
2 41852  98.0698  30.2015 0004252 142.1108 218.0427 15.24291902524913
AEROCUBE 8C             
1 41853U 16067F   26161.15790552  .00006945  00000+0  28524-3 0  9998
2 41853  98.0571  28.0315 0006819  88.2255 271.9761 15.24546142524992
CORVUS BC2              
1 42846U 17042X   26160.88744001  .00002553  00000+0  17769-3 0  9992
2 42846  97.4054 322.5225 0014207 132.8249 227.4176 15.06248195485961
CORVUS BC1              
1 42847U 17042Y   26160.94930317  .00002939  00000+0  20311-3 0  9992
2 42847  97.4081 323.3911 0013225 111.4047 248.8593 15.06416487486008
MAKERSAT 0              
1 43016U 17073D   26161.19104369  .00018116  00000+0  49573-3 0  9998
2 43016  97.4634  43.6556 0105691 298.3481  60.7133 15.31854691465395
